[
    {
        "Altitude(m)": 711093.2372108189,
        "Argument of Periapsis(deg)": 0.009112096949301655,
        "Eccentricity": 0.0,
        "Inclination(deg)": 45.0,
        "Latitude(deg)": -28.390931102257632,
        "Longitude(deg)": -63.09323026600894,
        "Mean Anomaly(deg)": -138.04612668201534,
        "RAAN(deg)": 184.99139844683344,
        "Satellite Name": "Constellation 1 827",
        "Satellite Number": 827,
        "Semi-Major Axis(m)": 7083131.272910544,
        "Time(s)": 152
    },
    {
        "Altitude(m)": 711107.0442530807,
        "Argument of Periapsis(deg)": 0.009172044955547059,
        "Eccentricity": 0.0,
        "Inclination(deg)": 45.0,
        "Latitude(deg)": -28.427220189437364,
        "Longitude(deg)": -63.0421175125252,
        "Mean Anomaly(deg)": -137.9854255417654,
        "RAAN(deg)": 184.99134185766786,
        "Satellite Name": "Constellation 1 827",
        "Satellite Number": 827,
        "Semi-Major Axis(m)": 7083131.272910544,
        "Time(s)": 153
    },
    {
        "Altitude(m)": 711120.849326143,
        "Argument of Periapsis(deg)": 0.009231992961792466,
        "Eccentricity": 0.0,
        "Inclination(deg)": 45.0,
        "Latitude(deg)": -28.463486595689464,
        "Longitude(deg)": -62.99096723758875,
        "Mean Anomaly(deg)": -137.92472440151548,
        "RAAN(deg)": 184.9912852685023,
        "Satellite Name": "Constellation 1 827",
        "Satellite Number": 827,
        "Semi-Major Axis(m)": 7083131.272910544,
        "Time(s)": 154
    },
    {
        "Altitude(m)": 711134.6523819888,
        "Argument of Periapsis(deg)": 0.009291940968037872,
        "Eccentricity": 0.0,
        "Inclination(deg)": 45.0,
        "Latitude(deg)": -28.499730272268827,
        "Longitude(deg)": -62.939779382128066,
        "Mean Anomaly(deg)": -137.86402326126566,
        "RAAN(deg)": 184.9912286793367,
        "Satellite Name": "Constellation 1 827",
        "Satellite Number": 827,
        "Semi-Major Axis(m)": 7083131.272910544,
        "Time(s)": 155
    },
    {
        "Altitude(m)": 711148.4533725935,
        "Argument of Periapsis(deg)": 0.009351888974283276,
        "Eccentricity": 0.0,
        "Inclination(deg)": 45.0,
        "Latitude(deg)": -28.535951170361056,
        "Longitude(deg)": -62.888554055200835,
        "Mean Anomaly(deg)": -137.80332212101575,
        "RAAN(deg)": 184.99117209017115,
        "Satellite Name": "Constellation 1 827",
        "Satellite Number": 827,
        "Semi-Major Axis(m)": 7083131.272910544,
        "Time(s)": 156
    },
    {
        "Altitude(m)": 711162.2522499316,
        "Argument of Periapsis(deg)": 0.00941183698052868,
        "Eccentricity": 0.0,
        "Inclination(deg)": 45.0,
        "Latitude(deg)": -28.572149241081615,
        "Longitude(deg)": -62.837290861606256,
        "Mean Anomaly(deg)": -137.74262098076582,
        "RAAN(deg)": 184.99111550100557,
        "Satellite Name": "Constellation 1 827",
        "Satellite Number": 827,
        "Semi-Major Axis(m)": 7083131.272910544,
        "Time(s)": 157
    },
    {
        "Altitude(m)": 711176.0489659713,
        "Argument of Periapsis(deg)": 0.009471784986774088,
        "Eccentricity": 0.0,
        "Inclination(deg)": 45.0,
        "Latitude(deg)": -28.60832443547635,
        "Longitude(deg)": -62.78598991046889,
        "Mean Anomaly(deg)": -137.68191984051597,
        "RAAN(deg)": 184.99105891184,
        "Satellite Name": "Constellation 1 827",
        "Satellite Number": 827,
        "Semi-Major Axis(m)": 7083131.272910544,
        "Time(s)": 158
    },
    {
        "Altitude(m)": 711189.843472686,
        "Argument of Periapsis(deg)": 0.009531732993019492,
        "Eccentricity": 0.0,
        "Inclination(deg)": 45.0,
        "Latitude(deg)": -28.64447670452154,
        "Longitude(deg)": -62.734651142849664,
        "Mean Anomaly(deg)": -137.621218700266,
        "RAAN(deg)": 184.9910023226744,
        "Satellite Name": "Constellation 1 827",
        "Satellite Number": 827,
        "Semi-Major Axis(m)": 7083131.272910544,
        "Time(s)": 159
    },
    {
        "Altitude(m)": 711203.6357220361,
        "Argument of Periapsis(deg)": 0.009591680999264898,
        "Eccentricity": 0.0,
        "Inclination(deg)": 45.0,
        "Latitude(deg)": -28.680605999123202,
        "Longitude(deg)": -62.683274499844536,
        "Mean Anomaly(deg)": -137.56051756001614,
        "RAAN(deg)": 184.99094573350885,
        "Satellite Name": "Constellation 1 827",
        "Satellite Number": 827,
        "Semi-Major Axis(m)": 7083131.272910544,
        "Time(s)": 160
    },
    {
        "Altitude(m)": 711217.4256659881,
        "Argument of Periapsis(deg)": 0.009651629005510304,
        "Eccentricity": 0.0,
        "Inclination(deg)": 45.0,
        "Latitude(deg)": -28.71671227011775,
        "Longitude(deg)": -62.63185992258413,
        "Mean Anomaly(deg)": -137.4998164197662,
        "RAAN(deg)": 184.9908891443433,
        "Satellite Name": "Constellation 1 827",
        "Satellite Number": 827,
        "Semi-Major Axis(m)": 7083131.272910544,
        "Time(s)": 161
    },
    {
        "Altitude(m)": 711231.213256503,
        "Argument of Periapsis(deg)": 0.00971157701175571,
        "Eccentricity": 0.0,
        "Inclination(deg)": 45.0,
        "Latitude(deg)": -28.752795468271405,
        "Longitude(deg)": -62.58040735223501,
        "Mean Anomaly(deg)": -137.43911527951633,
        "RAAN(deg)": 184.99083255517772,
        "Satellite Name": "Constellation 1 827",
        "Satellite Number": 827,
        "Semi-Major Axis(m)": 7083131.272910544,
        "Time(s)": 162
    },
    {
        "Altitude(m)": 711244.9984455351,
        "Argument of Periapsis(deg)": 0.009771525018001118,
        "Eccentricity": 0.0,
        "Inclination(deg)": 45.0,
        "Latitude(deg)": -28.78885554428053,
        "Longitude(deg)": -62.52891689809709,
        "Mean Anomaly(deg)": -137.37841413926643,
        "RAAN(deg)": 184.99077596601217,
        "Satellite Name": "Constellation 1 827",
        "Satellite Number": 827,
        "Semi-Major Axis(m)": 7083131.272910544,
        "Time(s)": 163
    },
    {
        "Altitude(m)": 711258.7811850493,
        "Argument of Periapsis(deg)": 0.00983147302424652,
        "Eccentricity": 0.0,
        "Inclination(deg)": 45.0,
        "Latitude(deg)": -28.824892448770935,
        "Longitude(deg)": -62.47738816521545,
        "Mean Anomaly(deg)": -137.31771299901655,
        "RAAN(deg)": 184.99071937684656,
        "Satellite Name": "Constellation 1 827",
        "Satellite Number": 827,
        "Semi-Major Axis(m)": 7083131.272910544,
        "Time(s)": 164
    },
    {
        "Altitude(m)": 711272.5614269947,
        "Argument of Periapsis(deg)": 0.009891421030491928,
        "Eccentricity": 0.0,
        "Inclination(deg)": 45.0,
        "Latitude(deg)": -28.86090613229884,
        "Longitude(deg)": -62.42582126296396,
        "Mean Anomaly(deg)": -137.25701185876662,
        "RAAN(deg)": 184.990662787681,
        "Satellite Name": "Constellation 1 827",
        "Satellite Number": 827,
        "Semi-Major Axis(m)": 7083131.272910544,
        "Time(s)": 165
    },
    {
        "Altitude(m)": 711286.3391233296,
        "Argument of Periapsis(deg)": 0.009951369036737332,
        "Eccentricity": 0.0,
        "Inclination(deg)": 45.0,
        "Latitude(deg)": -28.896896545349886,
        "Longitude(deg)": -62.37421613265731,
        "Mean Anomaly(deg)": -137.19631071851674,
        "RAAN(deg)": 184.99060619851545,
        "Satellite Name": "Constellation 1 827",
        "Satellite Number": 827,
        "Semi-Major Axis(m)": 7083131.272910544,
        "Time(s)": 166
    },
    {
        "Altitude(m)": 711300.1142260078,
        "Argument of Periapsis(deg)": 0.010011317042982738,
        "Eccentricity": 0.0,
        "Inclination(deg)": 45.0,
        "Latitude(deg)": -28.9328636383396,
        "Longitude(deg)": -62.3225727156486,
        "Mean Anomaly(deg)": -137.1356095782668,
        "RAAN(deg)": 184.99054960934987,
        "Satellite Name": "Constellation 1 827",
        "Satellite Number": 827,
        "Semi-Major Axis(m)": 7083131.272910544,
        "Time(s)": 167
    },
    {
        "Altitude(m)": 711313.8866869769,
        "Argument of Periapsis(deg)": 0.010071265049228144,
        "Eccentricity": 0.0,
        "Inclination(deg)": 45.0,
        "Latitude(deg)": -28.96880736161302,
        "Longitude(deg)": -62.27089095332996,
        "Mean Anomaly(deg)": -137.07490843801696,
        "RAAN(deg)": 184.99049302018432,
        "Satellite Name": "Constellation 1 827",
        "Satellite Number": 827,
        "Semi-Major Axis(m)": 7083131.272910544,
        "Time(s)": 168
    },
    {
        "Altitude(m)": 711327.6564581959,
        "Argument of Periapsis(deg)": 0.01013121305547355,
        "Eccentricity": 0.0,
        "Inclination(deg)": 45.0,
        "Latitude(deg)": -29.004727665445024,
        "Longitude(deg)": -62.219170787132946,
        "Mean Anomaly(deg)": -137.01420729776703,
        "RAAN(deg)": 184.99043643101876,
        "Satellite Name": "Constellation 1 827",
        "Satellite Number": 827,
        "Semi-Major Axis(m)": 7083131.272910544,
        "Time(s)": 169
    },
    {
        "Altitude(m)": 711341.4234916131,
        "Argument of Periapsis(deg)": 0.010191161061718957,
        "Eccentricity": 0.0,
        "Inclination(deg)": 45.0,
        "Latitude(deg)": -29.04062450003983,
        "Longitude(deg)": -62.16741215852947,
        "Mean Anomaly(deg)": -136.95350615751715,
        "RAAN(deg)": 184.99037984185316,
        "Satellite Name": "Constellation 1 827",
        "Satellite Number": 827,
        "Semi-Major Axis(m)": 7083131.272910544,
        "Time(s)": 170
    }
]